STARLINK-11279 [DTC]    
1 61206U 24171G   25085.30446984  .00002376  00000+0  24456-4 0  9990
2 61206  53.1578  93.4707 0001131  88.3190 271.7958 15.69718785 29682
STARLINK-11091 [DTC]    
1 61207U 24171H   25086.01464584  .00001917  00000+0  20686-4 0  9997
2 61207  53.1584  90.0860 0001504  58.9978 301.1188 15.69707745 30649
STARLINK-11291 [DTC]    
1 61208U 24171J   25085.74526487 -.00001526  00000+0 -77393-5 0  9994
2 61208  53.1594  91.2424 0001258  67.9162 292.1990 15.69704966 29753
STARLINK-11304 [DTC]    
1 61209U 24171K   25085.74036039 -.00001430  00000+0 -69409-5 0  9997
2 61209  53.1597  91.2082 0001676 103.8513 256.2692 15.69704659 30662
STARLINK-11307 [DTC]    
1 61210U 24171L   25085.73555103 -.00002350  00000+0 -14543-4 0  9996
2 61210  53.1585  91.9098 0001242  68.9136 291.2014 15.69708372 29746
STARLINK-11298 [DTC]    
1 61211U 24171M   25085.73065069 -.00003685  00000+0 -25566-4 0  9993
2 61211  53.1587  91.8766 0001416  83.2726 276.8452 15.69708477 29749
STARLINK-11310 [DTC]    
1 61212U 24171N   25085.28004930  .00000172  00000+0  62836-5 0  9992
2 61212  53.1594  94.0452 0001374  66.6986 293.4176 15.69716423 29671
STARLINK-32386          
1 61213U 24171P   25085.43306333 -.00004485  00000+0 -13933-3 0  9997
2 61213  53.1589 139.7188 0001232  80.8899 279.2241 15.30213635 29055
STARLINK-32392          
1 61214U 24171Q   25085.84288358 -.00000388  00000+0 -97110-6 0  9999
2 61214  53.1588 138.0126 0001472 101.0487 259.0679 15.30211515 29117
STARLINK-32436          
1 61215U 24171R   25085.43412035  .00000766  00000+0  38004-4 0  9999
2 61215  53.1589 139.7290 0001569 100.0498 260.0680 15.30190356 29053
STARLINK-32425          
1 61216U 24171S   25085.40890235 -.00000792  00000+0 -14611-4 0  9998
2 61216  53.1607 140.2809 0001051  97.5916 262.5204 15.30195992 29048
STARLINK-32342          
1 61217U 24171T   25085.98618159  .00002629  00000+0  10086-3 0  9995
2 61217  53.1595 137.4808 0001090  97.1429 262.9696 15.30195242 30049
STARLINK-32423          
1 61218U 24171U   25085.98829624 -.00000018  00000+0  11505-4 0  9996
2 61218  53.1600 137.4986 0001251  88.5726 271.5418 15.30188692 30046
STARLINK-32248          
1 61219U 24171V   25085.87560116  .00001445  00000+0  60893-4 0  9991
2 61219  53.1593 138.2123 0001200  88.6093 271.5045 15.30198397 30018
STARLINK-11300 [DTC]    
1 61243U 24175A   25085.40246954 -.00000609  00000+0 -16321-6 0  9994
2 61243  53.1585 333.2265 0001255  95.7858 264.3302 15.69709305 28661
STARLINK-11276 [DTC]    
1 61244U 24175B   25085.97058513  .00003179  00000+0  31094-4 0  9994
2 61244  53.1574 330.3672 0001531  88.1292 271.9902 15.69711975 28751
STARLINK-11280 [DTC]    
1 61245U 24175C   25085.96077007  .00001062  00000+0  13630-4 0  9998
2 61245  53.1577 330.3093 0001618  85.8662 274.2540 15.69713054 29905
STARLINK-11308 [DTC]    
1 61246U 24175D   25085.96567182  .00003249  00000+0  31668-4 0  9997
2 61246  53.1599 330.3336 0002027  85.3703 274.7546 15.69716616 29645
STARLINK-11305 [DTC]    
1 61247U 24175E   25085.95587060 -.00000625  00000+0 -30049-6 0  9995
2 61247  53.1582 330.2674 0001130  71.4435 288.6706 15.69707692 29954
STARLINK-11317 [DTC]    
1 61248U 24175F   25085.95096290  .00000498  00000+0  89767-5 0  9992
2 61248  53.1604 330.2360 0001655  87.1659 272.9548 15.69710891 29759
STARLINK-11293 [DTC]    
1 61249U 24175G   25085.94605713  .00000323  00000+0  75168-5 0  9995
2 61249  53.1581 330.2028 0000572 352.6125   7.4885 15.69706002 29967
STARLINK-11334 [DTC]    
1 61250U 24175H   25085.68647296 -.00000292  00000+0  24543-5 0  9997
2 61250  53.1588 331.4499 0001263 117.6989 242.4157 15.69711027 28714
STARLINK-11319 [DTC]    
1 61251U 24175J   25085.10865270 -.00000227  00000+0  29916-5 0  9996
2 61251  53.1601 334.9534 0001399  80.1549 279.9627 15.69700695 28610
STARLINK-11318 [DTC]    
1 61252U 24175K   25084.97639693 -.00001595  00000+0 -82964-5 0  9991
2 61252  53.1585 335.5443 0001305  60.7621 299.3528 15.69727841 29473
STARLINK-11311 [DTC]    
1 61253U 24175L   25086.05387469  .00000813  00000+0  11571-4 0  9999
2 61253  53.1573 330.1735 0000912 113.9085 246.2028 15.69704454 29914
STARLINK-11306 [DTC]    
1 61254U 24175M   25085.41227378 -.00002243  00000+0 -13652-4 0  9994
2 61254  53.1598 333.2838 0001152 105.0750 255.0395 15.69719413 29868
STARLINK-11313 [DTC]    
1 61255U 24175N   25086.04406362  .00000715  00000+0  10755-4 0  9998
2 61255  53.1576 330.1114 0000580 112.2008 247.9072 15.69703987 29768
STARLINK-32431          
1 61256U 24175P   25086.21547438  .00003554  00000+0  13202-3 0  9991
2 61256  53.1593   8.0302 0000688 102.1923 257.9154 15.30208913 29456
STARLINK-32432          
1 61257U 24175Q   25086.15333987  .00001793  00000+0  72690-4 0  9997
2 61257  53.1602   8.3588 0001461  70.2969 289.8189 15.30183227 29443
STARLINK-32382          
1 61258U 24175R   25086.15648202  .00005685  00000+0  20385-3 0  9994
2 61258  53.1609   8.3737 0001299 104.5473 255.5672 15.30213855 29197
STARLINK-32435          
1 61259U 24175S   25086.16391872 -.00003189  00000+0 -95725-4 0  9994
2 61259  53.1611   8.4211 0001463 107.2823 252.8337 15.30156141 29407
STARLINK-32474          
1 61260U 24175T   25085.75195005 -.00000343  00000+0  52646-6 0  9995
2 61260  53.1629  10.1159 0000985  82.2844 277.8268 15.30200715 28183
STARLINK-32447          
1 61261U 24175U   25086.21234102 -.00004614  00000+0 -14386-3 0  9992
2 61261  53.1616   8.0105 0000795  87.5766 272.5326 15.30182179 29458
STARLINK-32446          
1 61262U 24175V   25086.16074730 -.00003727  00000+0 -11389-3 0  9990
2 61262  53.1613   8.4022 0000983  81.7100 278.4012 15.30168286 29444
STARLINK-32174          
1 61509U 24183A   25086.34765777  .00001426  00000+0  45632-4 0  9992
2 61509  53.1610 317.1796 0001379  92.5971 267.5192 15.39620813 26464
STARLINK-32139          
1 61510U 24183B   25086.61206367  .00002563  00000+0  74078-4 0  9998
2 61510  53.1607 316.7011 0001397  85.9288 274.1877 15.39600745 26493
STARLINK-32140          
1 61511U 24183C   25086.33846484  .00002194  00000+0  64803-4 0  9993
2 61511  53.1601 317.8373 0001336  85.3014 274.8143 15.39621746 26368
STARLINK-32201          
1 61512U 24183D   25086.36588258  .00001583  00000+0  49517-4 0  9995
2 61512  53.1592 317.2931 0000105   7.0278 353.0728 15.39627216 26365
STARLINK-32030          
1 61513U 24183E   25086.61695026 -.00064042  00000+0 -16325-2 0  9996
2 61513  53.1612 316.7334 0005032 336.6501  23.4274 15.39079071 26492
STARLINK-31837          
1 61514U 24183F   25086.02695645  .00003380  00000+0  94383-4 0  9997
2 61514  53.1619 318.0160 0001129 106.4182 253.6947 15.39639037 26424
STARLINK-32136          
1 61515U 24183G   25086.03709993 -.00000924  00000+0 -13112-4 0  9995
2 61515  53.1613 319.5127 0001170  95.4417 264.6721 15.39630249 26419
STARLINK-32047          
1 61516U 24183H   25086.34689204  .00000884  00000+0  32075-4 0  9994
2 61516  53.1627 316.4578 0001488  80.4905 279.6268 15.39618963 26386
STARLINK-31756          
1 61517U 24183J   25085.67415218 -.00000140  00000+0  72931-5 0  9994
2 61517  53.1610 319.3236 0000577  63.1901 296.9159 15.31045506 26362
STARLINK-32172          
1 61518U 24183K   25086.01764637  .00005304  00000+0  14235-3 0  9993
2 61518  53.1618 317.9538 0001439 107.0460 253.0703 15.39651465 26315
STARLINK-32338          
1 61519U 24183L   25086.07794090  .00003624  00000+0  10056-3 0  9996
2 61519  53.1638 317.6233 0000833  70.7790 289.3305 15.39612289 26250
STARLINK-32306          
1 61520U 24183M   25086.00839232 -.00000444  00000+0 -11490-5 0  9993
2 61520  53.1627 317.9012 0000379  67.1115 292.9929 15.39616931 26377
STARLINK-32297          
1 61521U 24183N   25085.35459162 -.00000735  00000+0 -83968-5 0  9993
2 61521  53.1601 320.9280 0000721  73.1667 286.9416 15.39637623 26310
STARLINK-32260          
1 61522U 24183P   25085.67451968  .00001940  00000+0  58432-4 0  9999
2 61522  53.1614 319.3731 0001146  82.0921 278.0214 15.39638723 26367
STARLINK-32305          
1 61523U 24183Q   25086.61584827 -.00001763  00000+0 -34108-4 0  9995
2 61523  53.1604 315.2932 0001147  86.4230 273.6906 15.39609615 26410
STARLINK-32296          
1 61524U 24183R   25085.66986600 -.00007682  00000+0 -18188-3 0  9990
2 61524  53.1605 319.3393 0001906  76.2825 283.8392 15.39678363 26360
STARLINK-32298          
1 61525U 24183S   25086.05473108 -.00002399  00000+0 -50002-4 0  9991
2 61525  53.1605 317.4746 0001969  81.7340 278.3888 15.39612267 26386
STARLINK-32293          
1 61526U 24183T   25086.16668981 -.00624883  00000+0 -22323-1 0  9999
2 61526  53.1590 316.9978 0001066  79.3759 157.3774 15.30634036 26442
STARLINK-32313          
1 61527U 24183U   25086.16668981 -.00098518  00000+0 -33555-2 0  9990
2 61527  53.1592 316.9270 0001068  89.5550 182.3526 15.30226346 26392
STARLINK-32319          
1 61528U 24183V   25085.91668981  .00024533  00000+0  83915-3 0  9993
2 61528  53.1592 318.1468 0001231 107.6072 197.2540 15.30143498  5955
STARLINK-32351          
1 61529U 24183W   25086.02955399 -.00876684  00000+0 -27077-1 0  9998
2 61529  53.1589 319.4636 0021144 125.4712 234.8268 15.35318160 26354
STARLINK-32261          
1 61530U 24183X   25085.96756369 -.00000402  00000+0 -69675-7 0  9991
2 61530  53.1633 319.7869 0001361  83.6712 276.4447 15.39602529 26407
STARLINK-32358          
1 61531U 24183Y   25085.95792487  .00001162  00000+0  39032-4 0  9995
2 61531  53.1628 319.7231 0001029 121.3669 238.7437 15.39617874 26383
STARLINK-11354 [DTC]    
1 61532U 24184A   25085.59349837 -.00002656  00000+0 -17081-4 0  9995
2 61532  53.1572 152.3441 0001484 123.5711 236.5449 15.69690258 26652
STARLINK-11323 [DTC]    
1 61533U 24184B   25085.45632295 -.00000713  00000+0 -10281-5 0  9992
2 61533  53.1585 152.9063 0001167  90.2619 269.8532 15.69727554 25727
